#aV2014  7 24  0  0  0.00000000     288 DD+AD WGS84 FIT  NGA
## 1802 345600.00000000   300.00000000 56862 0.0000000000000
+   31     1  2  3  4  5  6  7  8 10 11 12 13 14 15 16 17 18
+         19 20 21 22 23 24 25 26 27 28 29 30 31 32  0  0  0
+          0  0  0  0  0  0  0  0  0  0  0  0  0  0  0  0  0
+          0  0  0  0  0  0  0  0  0  0  0  0  0  0  0  0  0
+          0  0  0  0  0  0  0  0  0  0  0  0  0  0  0  0  0
++         2  2  2  2  2  2  2  2  2  2  2  2  2  2  2  2  2
++         2  2  2  2  2  2  2  2  2  2  2  2  2  2  0  0  0
++         0  0  0  0  0  0  0  0  0  0  0  0  0  0  0  0  0
++         0  0  0  0  0  0  0  0  0  0  0  0  0  0  0  0  0
++         0  0  0  0  0  0  0  0  0  0  0  0  0  0  0  0  0
%c cc cc ccc ccc cccc cccc cccc cccc ccccc ccccc ccccc ccccc
%c cc cc ccc ccc cccc cccc cccc cccc ccccc ccccc ccccc ccccc
%f  0.0000000  0.000000000  0.00000000000  0.000000000000000
%f  0.0000000  0.000000000  0.00000000000  0.000000000000000
%i    0    0    0    0      0      0      0      0         0
%i    0    0    0    0      0      0      0      0         0
/*      NGA, ST. LOUIS,MO.                                  
/*   EPHEMERIS COMPUTED FROM  1 DAYS OF DATA                
/*   EPOCHA SMOOTHER                                       
/* CCCCCCCCCCCCCCCCCCCCCCCCCCCCCCCCCCCCCCCCCCCCCCCCCCCCCCCCC
*  2014  7 24  0 10  0.00000000
P  1  21252.178627  13609.083435  -8559.773761     18.265615                    
V  1 -10988.691449  -1175.707219 -29128.264487      0.007563                    
P  2   1030.371724 -16086.391308  21456.439486    508.468242                    
V  2  25457.964874   7624.892140   4072.131077      0.021812                    
P  3   1144.213262  19610.543697 -18379.377753    394.553406                    
V  3 -15694.207357  15989.212231  16733.834670      0.051459                    
P  4  23712.296086  -1346.275479  11800.289435      7.300895                    
V  4  13793.109013   7490.066190 -25921.008865     -0.001410                    
P  5  -1272.893255 -25854.296747   5498.825722   -355.573463                    
V  5   4666.523772   6263.471850  30498.761065      0.031952                    
P  6  14341.702481  -9942.698416  20007.561969     -1.225285                    
V  6  23773.063473   9104.278770 -12520.560235     -0.020400                    
P  7  25644.044346   6018.590702  -4579.325606    372.081762                    
V  7   4781.357772   3963.676533  31101.167419      0.042819                    
P  8  24124.292683   3720.577728 -11033.393265     14.875478                    
V  8  12158.449174   7027.842287  27925.343439      0.002177                    
P 10  10154.702655 -16282.338629  17837.878855   -134.923714                    
V 10   6511.080274  22752.439834  17161.929463     -0.015694                    
P 11  16243.982443  13524.581649 -16694.520770   -507.643886                    
V 11 -20472.810246   2694.555166 -18093.754694     -0.030627                    
P 12 -10772.111046 -21757.206682  10948.277434    220.090582                    
V 12   -638.720398 -13979.160940 -28000.220101      0.025480                    
P 13  19750.322333    688.470872  17703.456457    -23.640818                    
V 13 -17738.572180  14102.406348  18936.097417     -0.039066                    
P 14 -22081.669520  14298.691539  -2758.085180    151.610772                    
V 14   1418.457175  -4416.915486 -31797.147858     -0.036027                    
P 15  -6654.695121 -14945.203103 -20937.151566   -192.727658                    
V 15  19878.441079 -17695.306317   6624.451262     -0.022157                    
P 16      1.527036  25791.305459   5426.849731   -205.795960                    
V 16  -3137.813562  -6644.641583  31596.257013      0.022535                    
P 17  21615.990627 -14892.272470  -2876.128553   -111.203062                    
V 17  -1388.802428   4637.301127 -31818.902257     -0.028366                    
P 18 -16251.763037  -2320.683909 -20463.702148    333.450879                    
V 18  -4912.672228 -26696.600501   6452.328364      0.023549                    
P 19   2181.098665  16272.597293 -20935.865505   -469.759050                    
V 19 -21867.993126  14675.667982   9639.592979     -0.020262                    
P 20  14752.827783  17932.193312  12768.668387    213.968725                    
V 20   1284.678146  16812.770108 -24667.149014      0.042285                    
P 21 -25341.224921  -2284.323813  -7711.497754   -374.334242                    
V 21  -9048.538379  -6361.675725  28745.043954     -0.021421                    
P 22 -12348.467064  12810.808086 -19455.626325    252.728719                    
V 22  -6843.731944 -24483.239723 -11811.825358      0.029852                    
P 23  13356.424990   8655.753732  21430.266961    -38.911418                    
V 23 -20160.620028  17831.976020   4966.574973     -0.029779                    
P 24 -18361.674411 -14955.634156 -12145.287274    -32.317455                    
V 24  15345.011927   2478.899265 -26201.758788     -0.006499                    
P 25 -15230.836037 -10687.589740  18925.844911     24.531890                    
V 25  -3701.156872 -23851.807880 -16249.815400     -0.003401                    
P 26   6306.545270 -19282.219625 -17644.570660      4.459663                    
V 26  18060.553844 -11212.229431  19716.502540     -0.127251                    
P 27  -8290.830695  20687.145672 -14411.952983      0.131592                    
V 27 -15078.008724  10569.641958  23930.907085      0.029767                    
P 28  13035.852210  -7877.855467 -21136.309794    371.849431                    
V 28   4357.059472  27897.090529  -7623.215909      0.029209                    
P 29 -19650.184630    -65.538477  17878.322413    548.778925                    
V 29  16832.545167 -15201.638588  18520.791857      0.026341                    
P 30  22473.257929  -1216.314393 -14145.298825    -37.479088                    
V 30  15656.779466   9017.728804  24065.586066     -0.061015                    
P 31 -13089.583049  10194.950385  20961.153540    333.299941                    
V 31 -24315.795763  -9625.417208 -10279.554084     -0.002277                    
P 32   5292.804698  26144.054936   3178.398378   -378.713117                    
V 32  -2284.923416   4210.465206 -30758.401705      0.083526                    
EOF
